#cP2023  6 18  0  0  0.00000000      96 ORBIT IGS20 HLM  IGS
## 2267      0.00000000   900.00000000 60113 0.0000000000000
+   32   G01G02G03G04G05G06G07G08G09G10G11G12G13G14G15G16G17
+        G18G19G20G21G22G23G24G25G26G27G28G29G30G31G32  0  0
+          0  0  0  0  0  0  0  0  0  0  0  0  0  0  0  0  0
+          0  0  0  0  0  0  0  0  0  0  0  0  0  0  0  0  0
+          0  0  0  0  0  0  0  0  0  0  0  0  0  0  0  0  0
++         2  2  2  2  2  2  2  2  1  2  2  2  2  2  2  2  2
++         2  2  2  2  2  3  2  2  2  2  2  2  2  2  2  0  0
++         0  0  0  0  0  0  0  0  0  0  0  0  0  0  0  0  0
++         0  0  0  0  0  0  0  0  0  0  0  0  0  0  0  0  0
++         0  0  0  0  0  0  0  0  0  0  0  0  0  0  0  0  0
%c G  cc GPS ccc cccc cccc cccc cccc ccccc ccccc ccccc ccccc
%c cc cc ccc ccc cccc cccc cccc cccc ccccc ccccc ccccc ccccc
%f  1.2500000  1.025000000  0.00000000000  0.000000000000000
%f  0.0000000  0.000000000  0.00000000000  0.000000000000000
%i    0    0    0    0      0      0      0      0         0
%i    0    0    0    0      0      0      0      0         0
/* RAPID ORBIT COMBINATION FROM WEIGHTED AVERAGE OF:        
/* cod emr esa gfz grg jpl ngs sio usn whu                  
/* REFERENCED TO IGS TIME (IGST) AND TO WEIGHTED MEAN POLE: 
/* PCV:IGS20_2233 OL/AL:FES2014b NONE     Y  ORB:CMB CLK:CMB
*  2023  6 18 19 30  0.00000000
PG01   7851.449111  13688.700761 -21763.403084    177.592299  5  5  3  96       
PG02   1354.636022  14815.155239 -21492.715491   -584.545431  6  6  7  92       
PG03  12294.176470  23072.227179  -5177.765287   -265.677762  7  8  6  89       
PG04   3299.562495  20093.041175  17004.174186     71.904774  1  5  6 105       
PG05    327.470465 -19442.788596  17861.111205   -131.616403  5  8  8 115       
PG06  25656.365313  -5393.729514   4630.504618    584.304883  3  7  3  72       
PG07  22050.557248   7609.171944  13606.051579    148.786522  4  4  3  88       
PG08  -4922.649680  24897.951500  -7180.735543   -128.031936  4  7  6 103       
PG09  11322.021923  11400.444394  21068.427318   -132.687117  4  3  4 102       
PG10 -18385.422697  -4016.382894 -18692.755638    -41.706779  7  6  6  96       
PG11  15891.227485 -12648.224050  17101.823858   -240.788702  6  5  6  99       
PG12  -8336.479471 -24037.765118  -8040.466313   -390.210845  6  7  7 108       
PG13  13114.444296 -22920.350717  -1596.319702    535.772366  7  7  3 112       
PG14  19326.240321   7018.288276 -16883.190096     94.882320  5  8  5 106       
PG15   1158.059751 -25307.815887  -7982.319009     50.070240  7  8  5 108       
PG16  -5778.641526  16625.171097  19441.820227   -490.123648  3  6  6 114       
PG17  17412.602882  -5509.324119 -18898.356431    718.778855  4  6  5  98       
PG18 -23752.833792  -5403.422732  10775.655120   -312.749569  6  4  6  94       
PG19  18587.814818 -12095.412660 -14598.340977    332.351857  5  6  5 117       
PG20   8220.414969 -13449.690199  21426.666974    427.294965  5  6  5  96       
PG21  -1437.183984  15231.843379 -21066.399644    152.990112  6  6  7  94       
PG22 -17730.831416  15793.307514 -11283.138567    499.903090  2  4  8  87       
PG23 -19807.185724 -14743.930887  -9988.149589     34.459583  8  8  8  91       
PG24  -3646.305982 -15566.506555 -21574.523372   -229.337904  2  5  7 101       
PG25 -17291.462120 -20121.543493   2729.946992    450.659455  8  4  5  97       
PG26 -14443.651459   7004.119041  21076.132055    238.735512  3  6  5  97       
PG27 -12758.821808  22733.760371   3498.930455     13.877886  5  4  5 100       
PG28 -25916.052169   5253.864354   2452.105632     83.451138  7  3  4  86       
PG29  -8497.457869 -13924.025104  20886.847556   -603.204026  5  7  4  84       
PG30  26396.680430    601.205539   4108.530978   -510.174028  5  4  4  87       
PG31 -20597.679679  10850.461906  12991.406549   -218.428345  5  6  4  93       
PG32 -17413.880655   8370.444348 -17956.849576   -503.094804  4  5  5 109       
*  2023  6 18 19 45  0.00000000
PG01   5434.053627  13983.072013 -22285.793495    177.590244  5  5  4  89       
PG02  -1143.020572  15320.771974 -21143.064563   -584.542047  6  6  7  87       
PG03  11705.338802  22604.161997  -7933.308361   -265.665323  7  8  6 104       
PG04   2383.523605  21694.721941  15068.182809     71.914129  1  5  6  99       
PG05   1827.247896 -17876.771615  19341.267073   -131.617858  5  7  8  82       
PG06  26030.721621  -5274.241709   1755.585070    584.302912  2  7  3  80       
PG07  20496.877474   7986.187981  15686.631991    148.777435  4  4  3  98       
PG08  -5420.412495  25417.732990  -4411.559896   -128.035294  4  7  6  98       
PG09  10389.894630  13592.351005  20231.279814   -132.678997  4  4  5 103       
PG10 -19562.558145  -5711.497539 -17024.544587    -41.708526  7  6  5  84       
PG11  17744.589100 -12636.219887  15175.408005   -240.802392  5  5  5 102       
PG12  -7592.949815 -23295.111680 -10628.150495   -390.214980  7  7  7 106       
PG13  13326.373237 -22794.580405   1289.597754    535.777141  6  7  3 109       
PG14  20243.403484   8604.854443 -14982.281570     94.893440  6  8  6 106       
PG15   1655.497768 -25920.147516  -5308.658683     50.073090  7  8  5 106       
PG16  -7147.553406  14700.460739  20531.165326   -490.120120  3  6  6 113       
PG17  16491.948456  -3386.281674 -20144.893488    718.779684  4  6  6 100       
PG18 -22417.706569  -5730.943396  13181.852705   -312.763031  7  5  7 103       
PG19  17896.605236 -10467.987022 -16637.317653    332.356309  5  6  5 104       
PG20  10035.047635 -11790.931915  21613.368689    427.293176  6  6  4  99       
PG21  -3899.342834  15676.049101 -20357.701782    152.989464  6  6  7  78       
PG22 -17250.695675  14358.611515 -13624.157224    499.908241  2  4  7 115       
PG23 -20286.815694 -15626.474700  -7347.786292     34.462924  9  8  8  97       
PG24  -1301.468568 -16064.406281 -21438.399996   -229.349568  3  5  8  91       
PG25 -17203.793375 -20425.296928    -90.122640    450.661752  8  4  5  91       
PG26 -16000.155270   5165.822578  20508.714374    238.734734  3  6  6  94       
PG27 -12779.547200  22081.452426   6317.254277     13.870992  5  5  5  97       
PG28 -26076.621233   5022.391101   -401.221070     83.451581  7  3  3  96       
PG29  -7372.457998 -15975.206640  19813.221939   -603.204875  5  7  4  85       
PG30  25829.423899    970.857110   6804.493121   -510.171803  4  4  4  95       
PG31 -21975.550287  10795.826675  10631.483926   -218.429049  5  5  4  94       
PG32 -16737.135289   6295.605288 -19393.889845   -503.102359  4  6  5  96       
*  2023  6 18 20  0  0.00000000
PG01   2997.896464  14423.780200 -22437.581145    177.588219  4  4  4  86       
PG02  -3551.147120  15937.740421 -20411.641848   -584.538703  6  5  7  88       
PG03  10893.066980  21940.379470 -10553.886668   -265.652859  7  7  6  96       
PG04   1635.677688  23123.648920  12871.749918     71.923462  2  5  6 103       
PG05   3510.484458 -16283.273910  20482.560777   -131.619306  5  6  7  81       
PG06  26089.645984  -5115.618696  -1149.351908    584.300986  3  7  3  55       
PG07  18753.285057   8483.535045  17510.718961    148.768113  4  4  3  82       
PG08  -5796.105440  25656.275817  -1564.739607   -128.037879  4  7  6 103       
PG09   9606.023608  15719.624144  19043.454858   -132.670895  3  4  5  99       
PG10 -20694.580791  -7180.976678 -15063.163170    -41.710519  6  6  4  96       
PG11  19365.471244 -12688.913326  12987.500339   -240.816096  5  6  5  88       
PG12  -6643.703434 -22369.094342 -13035.929610   -390.219116  7  7  7 119       
PG13  13397.763508 -22387.124038   4152.988692    535.781804  6  7  3 111       
PG14  21094.623340   9964.858291 -12825.092206     94.904542  6  8  6 110       
PG15   2069.100508 -26254.649047  -2543.152558     50.076343  7  7  4 107       
PG16  -8673.183614  12766.696119  21254.330298   -490.116496  4  6  6 106       
PG17  15637.829683  -1100.787289 -21032.548350    718.780635  4  6  6 114       
PG18 -20846.557862  -6176.152173  15362.962960   -312.776512  7  6  7  86       
PG19  17203.595301  -8614.692684 -18390.748003    332.360980  4  7  5 117       
PG20  11932.458078 -10224.361376  21429.296469    427.291215  5  5  4  98       
PG21  -6241.889389  16215.221239 -19275.147996    152.989261  6  5  7  81       
PG22 -16742.718481  12664.682745 -15722.463025    499.913657  2  5  7 108       
PG23 -20606.721856 -16256.852799  -4582.093642     34.466218 10  9  7 102       
PG24    987.170417 -16667.159303 -20944.019126   -229.361279  4  5  7 100       
PG25 -16922.982045 -20494.863242  -2908.693458    450.663983  8  4  5  93       
PG26 -17581.100177   3466.522340  19586.783649    238.733967  3  6  6  83       
PG27 -12733.415757  21129.839941   9023.369546     13.864079  5  5  5 106       
PG28 -25934.547600   4727.174421  -3247.642547     83.452081  7  4  3  76       
PG29  -6416.175762 -17954.727739  18396.252309   -603.206186  6  7  4  84       
PG30  24990.372134   1420.701201   9385.534815   -510.169569  4  4  4  94       
PG31 -23080.358251  10767.511985   8091.267821   -218.429757  5  5  4  86       
PG32 -16121.897882   4052.232847 -20490.334491   -503.109845  4  6  5 110       
EOF
